UNKNOWN                 
1 82741U          25314.55009265  .00003408  00000+0  37026-2 0  9993
2 82741 102.8490 339.6449 0199033 337.9630  21.3032 13.65797770592685
UNKNOWN                 
1 82783U          25314.99002054  .00001771  00000+0  51460-2 0  9995
2 82783  90.3405  37.1625 0026455 193.6757 166.3657 13.08959441500200
UNKNOWN                 
1 82798U          25300.54598089  .00002999  00000+0  13288-2 0  9994
2 82798  82.9504 228.7921 0030286 316.3010 222.3841 14.22600605305802
UNKNOWN                 
1 82820U          25310.69418053  .00006119  00000+0  21558-2 0  9996
2 82820  99.7880 106.6792 0049755 118.9088 241.7097 14.34530341620465
UNKNOWN                 
1 82829U          25304.50476488  .00000035  00000+0  21351-2 0  9996
2 82829  65.0944 126.2556 0168315 345.0925  42.7807 11.29112830481311
UNKNOWN                 
1 82854U          25307.67330498  .00001591  00000+0  12516-2 0  9996
2 82854  82.6880  95.2368 0126555  32.0346 328.8428 13.87578696602380
UNKNOWN                 
1 82873U          25314.43604310  .00005826  00000+0  25346-2 0  9996
2 82873  99.9946 204.2024 0041715  13.2656 346.9605 14.24033977616636
UNKNOWN                 
1 82875U          25312.74904287  .00002044  00000+0  53824-3 0  9998
2 82875  98.6729 296.9408 0379026  20.7317 340.8775 14.15017496539669
UNKNOWN                 
1 82893U          25313.25837616  .00011364  00000+0  43348-2 0  9990
2 82893  98.9640  67.2960 0026733 145.3717 214.9212 14.30750589419183
UNKNOWN                 
1 82912U          25315.54215875  .00005421  00000+0  22127-2 0  9992
2 82912  65.8367 246.1596 0778945 282.9779  68.5462 13.27330492575187
UNKNOWN                 
1 82961U          25314.69446280  .00010148  00000+0  16633-1 0  9993
2 82961  99.9226 110.8007 0380262  83.0194 281.4010 13.22500906551474
UNKNOWN                 
1 82965U          25301.65945996  .00001337  00000+0  18600-2 0  9994
2 82965 100.1169  19.7271 0002369 200.4397 159.6647 13.59868042518325
