CCSDS_OMM_VERS = 2.0
CREATION_DATE  = 
ORIGINATOR     = 

OBJECT_NAME    = UNKNOWN
OBJECT_ID      = 
CENTER_NAME    = EARTH
REF_FRAME      = TEME
TIME_SYSTEM    = UTC
MEAN_ELEMENT_THEORY = SGP/SGP4

EPOCH          = 2025-11-10T13:12:08.004960
MEAN_MOTION    = 13.65797770
ECCENTRICITY   = .0199033
INCLINATION    = 102.8490
RA_OF_ASC_NODE = 339.6449
ARG_OF_PERICENTER = 337.9630
MEAN_ANOMALY   = 21.3032

EPHEMERIS_TYPE = 0
CLASSIFICATION_TYPE = U
NORAD_CAT_ID   = 82741
ELEMENT_SET_NO = 999
REV_AT_EPOCH   = 59268
BSTAR          = .37026E-2
MEAN_MOTION_DOT = .3408E-4
MEAN_MOTION_DDOT = 0

CCSDS_OMM_VERS = 2.0
CREATION_DATE  = 
ORIGINATOR     = 

OBJECT_NAME    = UNKNOWN
OBJECT_ID      = 
CENTER_NAME    = EARTH
REF_FRAME      = TEME
TIME_SYSTEM    = UTC
MEAN_ELEMENT_THEORY = SGP/SGP4

EPOCH          = 2025-11-10T23:45:37.774656
MEAN_MOTION    = 13.08959441
ECCENTRICITY   = .0026455
INCLINATION    = 90.3405
RA_OF_ASC_NODE = 37.1625
ARG_OF_PERICENTER = 193.6757
MEAN_ANOMALY   = 166.3657

EPHEMERIS_TYPE = 0
CLASSIFICATION_TYPE = U
NORAD_CAT_ID   = 82783
ELEMENT_SET_NO = 999
REV_AT_EPOCH   = 50020
BSTAR          = .5146E-2
MEAN_MOTION_DOT = .1771E-4
MEAN_MOTION_DDOT = 0

CCSDS_OMM_VERS = 2.0
CREATION_DATE  = 
ORIGINATOR     = 

OBJECT_NAME    = UNKNOWN
OBJECT_ID      = 
CENTER_NAME    = EARTH
REF_FRAME      = TEME
TIME_SYSTEM    = UTC
MEAN_ELEMENT_THEORY = SGP/SGP4

EPOCH          = 2025-10-27T13:06:12.748896
MEAN_MOTION    = 14.22600605
ECCENTRICITY   = .0030286
INCLINATION    = 82.9504
RA_OF_ASC_NODE = 228.7921
ARG_OF_PERICENTER = 316.3010
MEAN_ANOMALY   = 222.3841

EPHEMERIS_TYPE = 0
CLASSIFICATION_TYPE = U
NORAD_CAT_ID   = 82798
ELEMENT_SET_NO = 999
REV_AT_EPOCH   = 30580
BSTAR          = .13288E-2
MEAN_MOTION_DOT = .2999E-4
MEAN_MOTION_DDOT = 0

CCSDS_OMM_VERS = 2.0
CREATION_DATE  = 
ORIGINATOR     = 

OBJECT_NAME    = UNKNOWN
OBJECT_ID      = 
CENTER_NAME    = EARTH
REF_FRAME      = TEME
TIME_SYSTEM    = UTC
MEAN_ELEMENT_THEORY = SGP/SGP4

EPOCH          = 2025-11-06T16:39:37.197792
MEAN_MOTION    = 14.34530341
ECCENTRICITY   = .0049755
INCLINATION    = 99.7880
RA_OF_ASC_NODE = 106.6792
ARG_OF_PERICENTER = 118.9088
MEAN_ANOMALY   = 241.7097

EPHEMERIS_TYPE = 0
CLASSIFICATION_TYPE = U
NORAD_CAT_ID   = 82820
ELEMENT_SET_NO = 999
REV_AT_EPOCH   = 62046
BSTAR          = .21558E-2
MEAN_MOTION_DOT = .6119E-4
MEAN_MOTION_DDOT = 0

CCSDS_OMM_VERS = 2.0
CREATION_DATE  = 
ORIGINATOR     = 

OBJECT_NAME    = UNKNOWN
OBJECT_ID      = 
CENTER_NAME    = EARTH
REF_FRAME      = TEME
TIME_SYSTEM    = UTC
MEAN_ELEMENT_THEORY = SGP/SGP4

EPOCH          = 2025-10-31T12:06:51.685632
MEAN_MOTION    = 11.29112830
ECCENTRICITY   = .0168315
INCLINATION    = 65.0944
RA_OF_ASC_NODE = 126.2556
ARG_OF_PERICENTER = 345.0925
MEAN_ANOMALY   = 42.7807

EPHEMERIS_TYPE = 0
CLASSIFICATION_TYPE = U
NORAD_CAT_ID   = 82829
ELEMENT_SET_NO = 999
REV_AT_EPOCH   = 48131
BSTAR          = .21351E-2
MEAN_MOTION_DOT = .35E-6
MEAN_MOTION_DDOT = 0

CCSDS_OMM_VERS = 2.0
CREATION_DATE  = 
ORIGINATOR     = 

OBJECT_NAME    = UNKNOWN
OBJECT_ID      = 
CENTER_NAME    = EARTH
REF_FRAME      = TEME
TIME_SYSTEM    = UTC
MEAN_ELEMENT_THEORY = SGP/SGP4

EPOCH          = 2025-11-03T16:09:33.550272
MEAN_MOTION    = 13.87578696
ECCENTRICITY   = .0126555
INCLINATION    = 82.6880
RA_OF_ASC_NODE = 95.2368
ARG_OF_PERICENTER = 32.0346
MEAN_ANOMALY   = 328.8428

EPHEMERIS_TYPE = 0
CLASSIFICATION_TYPE = U
NORAD_CAT_ID   = 82854
ELEMENT_SET_NO = 999
REV_AT_EPOCH   = 60238
BSTAR          = .12516E-2
MEAN_MOTION_DOT = .1591E-4
MEAN_MOTION_DDOT = 0

CCSDS_OMM_VERS = 2.0
CREATION_DATE  = 
ORIGINATOR     = 

OBJECT_NAME    = UNKNOWN
OBJECT_ID      = 
CENTER_NAME    = EARTH
REF_FRAME      = TEME
TIME_SYSTEM    = UTC
MEAN_ELEMENT_THEORY = SGP/SGP4

EPOCH          = 2025-11-10T10:27:54.123840
MEAN_MOTION    = 14.24033977
ECCENTRICITY   = .0041715
INCLINATION    = 99.9946
RA_OF_ASC_NODE = 204.2024
ARG_OF_PERICENTER = 13.2656
MEAN_ANOMALY   = 346.9605

EPHEMERIS_TYPE = 0
CLASSIFICATION_TYPE = U
NORAD_CAT_ID   = 82873
ELEMENT_SET_NO = 999
REV_AT_EPOCH   = 61663
BSTAR          = .25346E-2
MEAN_MOTION_DOT = .5826E-4
MEAN_MOTION_DDOT = 0

CCSDS_OMM_VERS = 2.0
CREATION_DATE  = 
ORIGINATOR     = 

OBJECT_NAME    = UNKNOWN
OBJECT_ID      = 
CENTER_NAME    = EARTH
REF_FRAME      = TEME
TIME_SYSTEM    = UTC
MEAN_ELEMENT_THEORY = SGP/SGP4

EPOCH          = 2025-11-08T17:58:37.303968
MEAN_MOTION    = 14.15017496
ECCENTRICITY   = .0379026
INCLINATION    = 98.6729
RA_OF_ASC_NODE = 296.9408
ARG_OF_PERICENTER = 20.7317
MEAN_ANOMALY   = 340.8775

EPHEMERIS_TYPE = 0
CLASSIFICATION_TYPE = U
NORAD_CAT_ID   = 82875
ELEMENT_SET_NO = 999
REV_AT_EPOCH   = 53966
BSTAR          = .53824E-3
MEAN_MOTION_DOT = .2044E-4
MEAN_MOTION_DDOT = 0

CCSDS_OMM_VERS = 2.0
CREATION_DATE  = 
ORIGINATOR     = 

OBJECT_NAME    = UNKNOWN
OBJECT_ID      = 
CENTER_NAME    = EARTH
REF_FRAME      = TEME
TIME_SYSTEM    = UTC
MEAN_ELEMENT_THEORY = SGP/SGP4

EPOCH          = 2025-11-09T06:12:03.700224
MEAN_MOTION    = 14.30750589
ECCENTRICITY   = .0026733
INCLINATION    = 98.9640
RA_OF_ASC_NODE = 67.2960
ARG_OF_PERICENTER = 145.3717
MEAN_ANOMALY   = 214.9212

EPHEMERIS_TYPE = 0
CLASSIFICATION_TYPE = U
NORAD_CAT_ID   = 82893
ELEMENT_SET_NO = 999
REV_AT_EPOCH   = 41918
BSTAR          = .43348E-2
MEAN_MOTION_DOT = .11364E-3
MEAN_MOTION_DDOT = 0

CCSDS_OMM_VERS = 2.0
CREATION_DATE  = 
ORIGINATOR     = 

OBJECT_NAME    = UNKNOWN
OBJECT_ID      = 
CENTER_NAME    = EARTH
REF_FRAME      = TEME
TIME_SYSTEM    = UTC
MEAN_ELEMENT_THEORY = SGP/SGP4

EPOCH          = 2025-11-11T13:00:42.516000
MEAN_MOTION    = 13.27330492
ECCENTRICITY   = .0778945
INCLINATION    = 65.8367
RA_OF_ASC_NODE = 246.1596
ARG_OF_PERICENTER = 282.9779
MEAN_ANOMALY   = 68.5462

EPHEMERIS_TYPE = 0
CLASSIFICATION_TYPE = U
NORAD_CAT_ID   = 82912
ELEMENT_SET_NO = 999
REV_AT_EPOCH   = 57518
BSTAR          = .22127E-2
MEAN_MOTION_DOT = .5421E-4
MEAN_MOTION_DDOT = 0

CCSDS_OMM_VERS = 2.0
CREATION_DATE  = 
ORIGINATOR     = 

OBJECT_NAME    = UNKNOWN
OBJECT_ID      = 
CENTER_NAME    = EARTH
REF_FRAME      = TEME
TIME_SYSTEM    = UTC
MEAN_ELEMENT_THEORY = SGP/SGP4

EPOCH          = 2025-11-10T16:40:01.585920
MEAN_MOTION    = 13.22500906
ECCENTRICITY   = .0380262
INCLINATION    = 99.9226
RA_OF_ASC_NODE = 110.8007
ARG_OF_PERICENTER = 83.0194
MEAN_ANOMALY   = 281.4010

EPHEMERIS_TYPE = 0
CLASSIFICATION_TYPE = U
NORAD_CAT_ID   = 82961
ELEMENT_SET_NO = 999
REV_AT_EPOCH   = 55147
BSTAR          = .16633E-1
MEAN_MOTION_DOT = .10148E-3
MEAN_MOTION_DDOT = 0

CCSDS_OMM_VERS = 2.0
CREATION_DATE  = 
ORIGINATOR     = 

OBJECT_NAME    = UNKNOWN
OBJECT_ID      = 
CENTER_NAME    = EARTH
REF_FRAME      = TEME
TIME_SYSTEM    = UTC
MEAN_ELEMENT_THEORY = SGP/SGP4

EPOCH          = 2025-10-28T15:49:37.340544
MEAN_MOTION    = 13.59868042
ECCENTRICITY   = .0002369
INCLINATION    = 100.1169
RA_OF_ASC_NODE = 19.7271
ARG_OF_PERICENTER = 200.4397
MEAN_ANOMALY   = 159.6647

EPHEMERIS_TYPE = 0
CLASSIFICATION_TYPE = U
NORAD_CAT_ID   = 82965
ELEMENT_SET_NO = 999
REV_AT_EPOCH   = 51832
BSTAR          = .186E-2
MEAN_MOTION_DOT = .1337E-4
MEAN_MOTION_DDOT = 0

